{
    "links": {
        "self": "http://www.neowsapp.com/rest/v1/neo/3775264?api_key=iIulBulltgU6a56xZRHN4H3l9WmuAYTsLGpBGhQ2"
    },
    "id": "3775264",
    "neo_reference_id": "3775264",
    "name": "(2017 MJ)",
    "designation": "2017 MJ",
    "nasa_jpl_url": "http://ssd.jpl.nasa.gov/sbdb.cgi?sstr=3775264",
    "absolute_magnitude_h": 22.2,
    "estimated_diameter": {
        "kilometers": {
            "estimated_diameter_min": 0.096506147,
            "estimated_diameter_max": 0.2157943048
        },
        "meters": {
            "estimated_diameter_min": 96.5061469579,
            "estimated_diameter_max": 215.7943048444
        },
        "miles": {
            "estimated_diameter_min": 0.059966121,
            "estimated_diameter_max": 0.134088323
        },
        "feet": {
            "estimated_diameter_min": 316.6212271853,
            "estimated_diameter_max": 707.9865871058
        }
    },
    "is_potentially_hazardous_asteroid": false,
    "close_approach_data": [
        {
            "close_approach_date": "2017-07-02",
            "close_approach_date_full": "2017-Jul-02 13:09",
            "epoch_date_close_approach": 1499000940000,
            "relative_velocity": {
                "kilometers_per_second": "17.6054973795",
                "kilometers_per_hour": "63379.7905663231",
                "miles_per_hour": "39381.7370882801"
            },
            "miss_distance": {
                "astronomical": "0.0807512969",
                "lunar": "31.4122544941",
                "kilometers": "12080222.015977603",
                "miles": "7506301.8888848014"
            },
            "orbiting_body": "Earth"
        }
    ],
    "orbital_data": {
        "orbit_id": "9",
        "orbit_determination_date": "2017-07-07 06:16:47",
        "first_observation_date": "2017-05-27",
        "last_observation_date": "2017-07-02",
        "data_arc_in_days": 36,
        "observations_used": 85,
        "orbit_uncertainty": "7",
        "minimum_orbit_intersection": ".0511386",
        "jupiter_tisserand_invariant": "4.260",
        "epoch_osculation": "2459000.5",
        "eccentricity": ".3181807739535156",
        "semi_major_axis": "1.535175461190647",
        "inclination": "32.25328345374194",
        "ascending_node_longitude": "97.26813751170349",
        "orbital_period": "694.7610400993146",
        "perihelion_distance": "1.046712144794562",
        "perihelion_argument": "203.6947229455658",
        "aphelion_distance": "2.023638777586732",
        "perihelion_time": "2458654.616391970121",
        "mean_anomaly": "179.2243544240144",
        "mean_motion": ".518163770306606",
        "equinox": "J2000",
        "orbit_class": {
            "orbit_class_type": "AMO",
            "orbit_class_description": "Near-Earth asteroid orbits similar to that of 1221 Amor",
            "orbit_class_range": "1.017 AU < q (perihelion) < 1.3 AU"
        }
    },
    "is_sentry_object": false
}